[{"OBJECT_NAME":"STARLINK-32671","OBJECT_ID":"2024-229T","EPOCH":"2026-03-09T22:24:25.866144","MEAN_MOTION":15.27556342,"ECCENTRICITY":0.00027458,"INCLINATION":43.0043,"RA_OF_ASC_NODE":269.7602,"ARG_OF_PERICENTER":244.2895,"MEAN_ANOMALY":115.7673,"EPHEMERIS_TYPE":0,"CLASSIFICATION_TYPE":"U","NORAD_CAT_ID":62209,"ELEMENT_SET_NO":999,"REV_AT_EPOCH":7059,"BSTAR":0.00092221139,"MEAN_MOTION_DOT":0.00025185,"MEAN_MOTION_DDOT":0},{"OBJECT_NAME":"OBJECT F","OBJECT_ID":"2026-023F","EPOCH":"2026-03-09T17:11:01.401216","MEAN_MOTION":15.23264948,"ECCENTRICITY":0.00223432,"INCLINATION":96.6318,"RA_OF_ASC_NODE":144.1544,"ARG_OF_PERICENTER":121.6413,"MEAN_ANOMALY":238.701,"EPHEMERIS_TYPE":0,"CLASSIFICATION_TYPE":"U","NORAD_CAT_ID":67679,"ELEMENT_SET_NO":999,"REV_AT_EPOCH":484,"BSTAR":0.00053756888,"MEAN_MOTION_DOT":0.00012778,"MEAN_MOTION_DDOT":0}]
